[{"OBJECT_ID":"2005-005A","OBJECT_NAME":"XTAR-EUR","NORAD_CAT_ID":"28542","OBJECT_TYPE":"PAYLOAD","PERIOD":"1436.079","INCLINATION":"0.106","APOGEE":"35796.501","PERIGEE":"35776.026","ECCENTRICITY":"0.0002428","MEAN_MOTION":"1.00272973","TLE_LINE1":"1 28542U 05005A   16237.99256961 +.00000126 +00000-0 +00000-0 0  9996","TLE_LINE2":"2 28542 000.1060 273.6947 0002428 255.2025 191.1031 01.00272973042277","LAUNCH_DATE":"2005-02-12","LAUNCH_SITE":"FRENCH GUIANA","OWNER":"UNITED STATES OF AMERICA","ORBIT_TYPE":"Geosynchronous","OPERATIONAL_STATUS":"Operational","satInfo":{"lng":75.71419084903584,"lat":-1.7638255650774608,"elevation":-10.300104639540372,"azimuth":239.28580915096416,"range":42798.33131473218,"height":35750.4274566724,"velocity":3.076365545266123},"x":259,"y":-70,"dx":0.759120892357974,"dy":2.98123471717444},{"OBJECT_ID":"2005-008B","OBJECT_NAME":"BLOCK DM-SL R/B","NORAD_CAT_ID":"28627","OBJECT_TYPE":"ROCKET BODY","PERIOD":"673.283","INCLINATION":"0.5422","APOGEE":"35748.833","PERIGEE":"2387.589","ECCENTRICITY":"0.6555213","MEAN_MOTION":"2.13877262","TLE_LINE1":"1 28627U 05008B   16238.82167168 -.00000099  00000-0  00000+0 0  9995","TLE_LINE2":"2 28627   0.5422 307.7027 6555213 150.2171 136.8455  2.13877262 89782","LAUNCH_DATE":"2005-03-01","LAUNCH_SITE":"SEA LAUNCH","OWNER":"SEA LAUNCH DEMO","ORBIT_TYPE":"Highly Elliptical Orbit","OPERATIONAL_STATUS":"N/A, derelict rocket body","satInfo":{"lng":154.1941400612691,"lat":-2.706486037631853,"elevation":-25.226618956756983,"azimuth":160.80585993873086,"range":16574.109332194428,"height":8631.981013915469,"velocity":6.119140413523341},"x":28,"y":61,"dx":-5.508904566836551,"dy":2.6638036477754885},{"OBJECT_ID":"2005-015B","OBJECT_NAME":"BLOCK DM-SL R/B","NORAD_CAT_ID":"28645","OBJECT_TYPE":"ROCKET BODY","PERIOD":"498.482","INCLINATION":"0.3129","APOGEE":"28648.866","PERIGEE":"245.652","ECCENTRICITY":"0.681937","MEAN_MOTION":"2.88876962","TLE_LINE1":"1 28645U 05015B   16239.27580950  .00002873  00000-0  54369-3 0  9993","TLE_LINE2":"2 28645   0.3129 301.7125 6819370 162.0994 335.1946  2.88876962108451","LAUNCH_DATE":"2005-04-26","LAUNCH_SITE":"SEA LAUNCH","OWNER":"SEA LAUNCH DEMO","ORBIT_TYPE":"Highly Elliptical Orbit","OPERATIONAL_STATUS":"N/A, derelict rocket body","satInfo":{"lng":125.00478840592989,"lat":-2.281590902976457,"elevation":-23.39755272704259,"azimuth":189.99521159407007,"range":17627.386527280003,"height":9812.579106837928,"velocity":5.4567857522737855},"x":60,"y":44,"dx":-3.130257282860306,"dy":4.4696756134330595},{"OBJECT_ID":"2005-028A","OBJECT_NAME":"IPSTAR 1","NORAD_CAT_ID":"28786","OBJECT_TYPE":"PAYLOAD","PERIOD":"1436.207","INCLINATION":"0.0216","APOGEE":"35798.987","PERIGEE":"35778.536","ECCENTRICITY":"0.0002425","MEAN_MOTION":"1.00264061","TLE_LINE1":"1 28786U 05028A   16238.02951149  .00000000  00000-0  10000-3 0  9991","TLE_LINE2":"2 28786   0.0216  86.0003 0002425  69.0267 308.7506  1.00264061 40409","LAUNCH_DATE":"2005-08-11","LAUNCH_SITE":"FRENCH GUIANA","OWNER":"THAILAND","ORBIT_TYPE":"Geosynchronous","OPERATIONAL_STATUS":"Operational","satInfo":{"lng":65.97898589218354,"lat":1.897537727072678,"elevation":-6.712822033172538,"azimuth":249.0210141078164,"range":42447.89582314667,"height":35801.86436032581,"velocity":3.07449236427734},"x":244,"y":-115,"dx":1.2515387489695318,"dy":2.8082297017565083},{"OBJECT_ID":"2005-041A","OBJECT_NAME":"GALAXY 15","NORAD_CAT_ID":"28884","OBJECT_TYPE":"PAYLOAD","PERIOD":"1436.087","INCLINATION":"0.0568","APOGEE":"35791.007","PERIGEE":"35781.824","ECCENTRICITY":"0.0001089","MEAN_MOTION":"1.00272431","TLE_LINE1":"1 28884U 05041A   16239.28844422  .00000050  00000-0  00000+0 0  9999","TLE_LINE2":"2 28884   0.0568 282.2553 0001089 247.7303 135.8159  1.00272431 39703","LAUNCH_DATE":"2005-10-13","LAUNCH_SITE":"FRENCH GUIANA","OWNER":"INTERNATIONAL TELECOMMUNICATIONS SATELLITE ORGANIZATION (INTELSAT)","ORBIT_TYPE":"Geosynchronous","OPERATIONAL_STATUS":"Partially operational","satInfo":{"lng":-114.66038794454833,"lat":2.127002411978108,"elevation":-6.49267802813278,"azimuth":69.66038794454832,"range":42397.51538841506,"height":35776.468615169564,"velocity":3.0749123054562286},"x":-243,"y":118,"dx":-1.28297292661518,"dy":-2.7944706396415437},{"OBJECT_ID":"2005-041B","OBJECT_NAME":"SYRACUSE 3A","NORAD_CAT_ID":"28885","OBJECT_TYPE":"PAYLOAD","PERIOD":"1436.037","INCLINATION":"0.0082","APOGEE":"35798.152","PERIGEE":"35772.711","ECCENTRICITY":"0.0003017","MEAN_MOTION":"1.00275941","TLE_LINE1":"1 28885U 05041B   16238.83416251  .00000101  00000-0  00000+0 0  9992","TLE_LINE2":"2 28885   0.0082 115.1011 0003017  50.9937 155.7254  1.00275941 39805","LAUNCH_DATE":"2005-10-13","LAUNCH_SITE":"FRENCH GUIANA","OWNER":"FRANCE","ORBIT_TYPE":"Geosynchronous","OPERATIONAL_STATUS":"Operational","satInfo":{"lng":101.07190695989489,"lat":1.630114626471019,"elevation":-6.9815540986922695,"azimuth":213.92809304010507,"range":42446.2632247308,"height":35770.44160632261,"velocity":3.075632477262771},"x":262,"y":54,"dx":-0.5906469210194158,"dy":3.018385553550741},{"OBJECT_ID":"2005-049A","OBJECT_NAME":"INSAT 4A","NORAD_CAT_ID":"28911","OBJECT_TYPE":"PAYLOAD","PERIOD":"1436.086","INCLINATION":"0.078","APOGEE":"35804.860","PERIGEE":"35767.932","ECCENTRICITY":"0.0004379","MEAN_MOTION":"1.00272499","TLE_LINE1":"1 28911U 05049A   16238.84016785 -.00000192  00000-0  00000+0 0  9990","TLE_LINE2":"2 28911   0.0780 270.3204 0004379 315.2292 134.4081  1.00272499 39178","LAUNCH_DATE":"2005-12-21","LAUNCH_SITE":"FRENCH GUIANA","OWNER":"INDIA","ORBIT_TYPE":"Geosynchronous","OPERATIONAL_STATUS":"Operational","satInfo":{"lng":67.48868249655945,"lat":-1.891031548173691,"elevation":-10.419343466883207,"azimuth":247.5113175034405,"range":42834.34452651116,"height":35772.82177989221,"velocity":3.0756525473238754},"x":247,"y":-108,"dx":1.1775625319686371,"dy":2.841299891803654},{"OBJECT_ID":"2006-003B","OBJECT_NAME":"BLOCK DM-SL R/B","NORAD_CAT_ID":"28936","OBJECT_TYPE":"ROCKET BODY","PERIOD":"656.045","INCLINATION":"0.2955","APOGEE":"35602.912","PERIGEE":"1661.126","ECCENTRICITY":"0.6785601","MEAN_MOTION":"2.19496805","TLE_LINE1":"1 28936U 06003B   16238.87054488 -.00000214 +00000-0 +00000-0 0  9999","TLE_LINE2":"2 28936 000.2955 117.3801 6785601 057.4833 001.1677 02.19496805084429","LAUNCH_DATE":"2006-02-15","LAUNCH_SITE":"SEA LAUNCH","OWNER":"SEA LAUNCH DEMO","ORBIT_TYPE":"Highly Elliptical Orbit","OPERATIONAL_STATUS":"N/A, derelict rocket body","satInfo":{"lng":135.15887401893255,"lat":1.1164650911585912,"elevation":-16.798115604151974,"azimuth":179.84112598106742,"range":20665.710800565896,"height":13409.49581397163,"velocity":4.934394797929639},"x":70,"y":75,"dx":-3.498805555829748,"dy":3.479455662072729},{"OBJECT_ID":"2006-004A","OBJECT_NAME":"MTSAT 2","NORAD_CAT_ID":"28937","OBJECT_TYPE":"PAYLOAD","PERIOD":"1436.106","INCLINATION":"0.0319","APOGEE":"35801.823","PERIGEE":"35771.742","ECCENTRICITY":"0.0003567","MEAN_MOTION":"1.00271121","TLE_LINE1":"1 28937U 06004A   16238.92132579 -.00000271 +00000-0 +00000-0 0  9998","TLE_LINE2":"2 28937 000.0319 090.9699 0003567 053.9453 306.3444 01.00271121038567","LAUNCH_DATE":"2006-02-18","LAUNCH_SITE":"TANEGASHIMA SPACE CENTER","OWNER":"JAPAN","ORBIT_TYPE":"Geosynchronous","OPERATIONAL_STATUS":"Operational","satInfo":{"lng":-61.72920513962073,"lat":-0.2936152275911556,"elevation":-8.855270910267722,"azimuth":16.729205139620717,"range":42699.44461456824,"height":35812.898285239,"velocity":3.0736606766339265},"x":-236,"y":-134,"dx":1.4558066309078852,"dy":-2.7070310320516016},{"OBJECT_ID":"2006-007A","OBJECT_NAME":"SPAINSAT","NORAD_CAT_ID":"28945","OBJECT_TYPE":"PAYLOAD","PERIOD":"1436.082","INCLINATION":"0.0562","APOGEE":"35807.218","PERIGEE":"35765.399","ECCENTRICITY":"0.0004959","MEAN_MOTION":"1.00272813","TLE_LINE1":"1 28945U 06007A   16239.15320924 -.00000244  00000-0  00000+0 0  9998","TLE_LINE2":"2 28945   0.0562 257.7994 0004959 279.2816 182.9149  1.00272813 38311","LAUNCH_DATE":"2006-03-11","LAUNCH_SITE":"FRENCH GUIANA","OWNER":"SPAIN","ORBIT_TYPE":"Geosynchronous","OPERATIONAL_STATUS":"Operational","satInfo":{"lng":-50.14745510084816,"lat":-0.6631125185941782,"elevation":-9.222404729525639,"azimuth":5.147455100848135,"range":42706.99773290464,"height":35779.63653595562,"velocity":3.074565141587489},"x":-206,"y":-181,"dx":1.9702244137294664,"dy":-2.3603318769633383},{"OBJECT_ID":"2006-010A","OBJECT_NAME":"JCSAT 9","NORAD_CAT_ID":"29045","OBJECT_TYPE":"PAYLOAD","PERIOD":"1436.161","INCLINATION":"0.0207","APOGEE":"35792.260","PERIGEE":"35783.473","ECCENTRICITY":"0.0001042","MEAN_MOTION":"1.00267255","TLE_LINE1":"1 29045U 06010A   16238.81438253 -.00000356  00000-0  00000+0 0  9995","TLE_LINE2":"2 29045   0.0207 114.3116 0001042  55.6940 229.7041  1.00267255 38020","LAUNCH_DATE":"2006-04-12","LAUNCH_SITE":"SEA LAUNCH","OWNER":"JAPAN","ORBIT_TYPE":"Geosynchronous","OPERATIONAL_STATUS":"Operational","satInfo":{"lng":126.83118760824759,"lat":0.8253985039483639,"elevation":-7.765137149606998,"azimuth":188.16881239175243,"range":42558.69284458673,"height":35794.674248670075,"velocity":3.0744762732994},"x":214,"y":169,"dx":-1.843023606845722,"dy":2.4608267593819675}]